[{"OBJECT_NAME":"KUIPER-00056","OBJECT_ID":"2025-134S","EPOCH":"2026-03-09T14:44:55.990752","MEAN_MOTION":14.83541877,"ECCENTRICITY":9.82e-5,"INCLINATION":51.9023,"RA_OF_ASC_NODE":223.5207,"ARG_OF_PERICENTER":62.1388,"MEAN_ANOMALY":297.9675,"EPHEMERIS_TYPE":0,"CLASSIFICATION_TYPE":"U","NORAD_CAT_ID":64516,"ELEMENT_SET_NO":999,"REV_AT_EPOCH":4020,"BSTAR":0.00069839,"MEAN_MOTION_DOT":5.582e-5,"MEAN_MOTION_DDOT":0},{"OBJECT_NAME":"CZ-6A DEB","OBJECT_ID":"2022-151BE","EPOCH":"2026-03-09T14:25:13.526400","MEAN_MOTION":14.78801152,"ECCENTRICITY":0.0065451,"INCLINATION":98.6199,"RA_OF_ASC_NODE":136.72,"ARG_OF_PERICENTER":202.554,"MEAN_ANOMALY":157.2789,"EPHEMERIS_TYPE":0,"CLASSIFICATION_TYPE":"U","NORAD_CAT_ID":54311,"ELEMENT_SET_NO":999,"REV_AT_EPOCH":17575,"BSTAR":0.0032386,"MEAN_MOTION_DOT":0.00024703,"MEAN_MOTION_DDOT":0}]
